OBJECT_NAME,OBJECT_ID,EPOCH,MEAN_MOTION,ECCENTRICITY,INCLINATION,RA_OF_ASC_NODE,ARG_OF_PERICENTER,MEAN_ANOMALY,EPHEMERIS_TYPE,CLASSIFICATION_TYPE,NORAD_CAT_ID,ELEMENT_SET_NO,REV_AT_EPOCH,BSTAR,MEAN_MOTION_DOT,MEAN_MOTION_DDOT
STARLINK-37202,2026-082D,2026-06-08T04:05:08.126880,15.33444431,.00013235,97.2858,22.7521,90.9090,269.2305,0,U,68731,999,831,.55489232E-3,.17881E-3,0
STARLINK-37167,2026-082E,2026-06-08T04:09:03.235968,15.33437831,.00011195,97.2853,22.7482,105.2218,254.9149,0,U,68732,999,831,.48503843E-3,.15613E-3,0
STARLINK-37278,2026-082F,2026-06-08T06:00:04.000320,15.33493272,.00010408,97.2854,22.9739,81.1285,329.2826,0,U,68733,999,596,-.13764671E-2,-.44321E-3,0
STARLINK-37349,2026-082G,2026-06-08T04:32:31.551648,15.33524578,.00018545,97.2848,22.8825,104.1610,255.9839,0,U,68734,999,832,.19384585E-2,.6319E-3,0
STARLINK-37339,2026-082H,2026-06-08T06:00:04.000320,15.33479314,.0001524,97.2854,22.9463,95.0752,255.3557,0,U,68735,999,584,-.13913719E-2,-.44779E-3,0
STARLINK-37327,2026-082J,2026-06-08T03:53:23.442432,15.33458774,.00019282,97.2857,22.7625,86.7313,273.4150,0,U,68736,999,831,.22337029E-3,.7146E-4,0
STARLINK-37348,2026-082K,2026-06-08T03:41:38.019264,15.33482034,.00020843,97.2883,22.7776,73.0245,287.1226,0,U,68737,999,831,.11028767E-2,.35742E-3,0
STARLINK-37331,2026-082L,2026-06-08T06:00:04.000320,15.33433673,.00011609,97.2927,22.8624,71.0609,84.2935,0,U,68738,999,600,-.62720748E-3,-.20263E-3,0
STARLINK-37338,2026-082M,2026-06-08T06:45:39.866688,15.33442332,.00013637,97.2857,22.9051,96.9191,263.2207,0,U,68739,999,833,.38921951E-3,.1251E-3,0
STARLINK-37314,2026-082N,2026-06-08T06:00:04.000320,15.33473604,.00019563,97.2859,22.8946,99.9175,130.5159,0,U,68740,999,600,-.13818179E-2,-.44467E-3,0
STARLINK-36314,2026-082P,2026-06-08T03:57:18.330336,15.33444860,.00020761,97.2852,22.7588,104.9726,255.1746,0,U,68741,999,831,.47937784E-3,.15433E-3,0
STARLINK-37351,2026-082Q,2026-06-08T05:03:51.838560,15.33447702,.00020175,97.2867,22.8482,114.3416,245.8038,0,U,68742,999,832,.43518403E-3,.14002E-3,0
STARLINK-37354,2026-082R,2026-06-08T05:54:45.803808,15.33444282,.00006346,97.2855,22.9562,86.9548,273.1767,0,U,68743,999,833,.44043109E-3,.1417E-3,0
STARLINK-37344,2026-082S,2026-06-08T04:48:12.333600,15.33437041,.00014322,97.2858,22.8633,105.2510,254.8892,0,U,68744,999,832,.3354979E-3,.10769E-3,0
STARLINK-37267,2026-082T,2026-06-08T06:00:04.000320,15.33461386,.00012043,97.2905,22.9632,93.5357,301.8797,0,U,68745,999,594,-.17186858E-2,-.55187E-3,0
STARLINK-37347,2026-082U,2026-06-08T06:00:04.000320,15.33473755,.00019189,97.2862,22.9008,71.5425,173.8886,0,U,68746,999,599,-.1405241E-2,-.45215E-3,0
STARLINK-37268,2026-082V,2026-06-08T06:00:04.000320,15.33475980,.00016324,97.2858,22.9515,86.9152,278.5211,0,U,68747,999,594,-.14813801E-2,-.47648E-3,0
STARLINK-37325,2026-082W,2026-06-08T06:00:04.000320,15.33471460,.00013049,97.2857,22.8565,89.3303,51.0965,0,U,68748,999,595,-.16154362E-2,-.51915E-3,0
STARLINK-37324,2026-082X,2026-06-08T04:36:26.957088,15.33468263,.00020733,97.2851,22.8799,77.9477,282.1998,0,U,68749,999,832,.78925564E-3,.25511E-3,0
STARLINK-37350,2026-082Y,2026-06-08T04:10:50.598336,15.33438883,.00015398,97.2852,21.8302,82.0576,278.0841,0,U,68750,999,825,.51175246E-3,.16479E-3,0
STARLINK-37277,2026-082Z,2026-06-08T03:10:19.456032,15.33437086,.00013851,97.2856,22.8035,100.7331,259.4068,0,U,68751,999,831,.41533895E-3,.13354E-3,0
STARLINK-37342,2026-082AA,2026-06-08T04:40:22.765152,15.33433046,.00014893,97.2856,22.8707,90.0153,270.1261,0,U,68752,999,832,.35960525E-3,.11548E-3,0
SL-4 R/B,2026-083A,2026-06-08T03:45:01.697760,15.22423989,.0062203,98.2723,309.6078,259.7567,99.6649,0,U,68753,999,795,.1912706E-3,.4571E-4,0
COSMOS 2609,2026-083B,2026-06-08T06:44:16.024992,15.07342835,.00125593,98.1217,307.6848,100.4342,259.8301,0,U,68754,999,788,.17044622E-3,.2509E-4,0
COSMOS 2610,2026-083F,2026-06-08T07:18:20.820960,15.06482808,.00122606,97.8045,297.1476,85.8526,274.4102,0,U,68758,999,786,.15056572E-3,.2161E-4,0
COSMOS 2611,2026-083G,2026-06-08T07:29:09.826656,15.06154875,.00129878,97.8106,296.6012,91.4718,268.7996,0,U,68759,999,785,.16629012E-3,.2373E-4,0
DAQI-2,2026-084A,2026-06-06T04:30:24.452928,14.57564743,.00030618,98.2870,231.4025,120.1079,240.0423,0,U,68760,999,729,.23202981E-4,.59E-6,0
COSMOS 2612,2026-083H,2026-06-08T06:56:33.438624,15.06970120,.00143848,97.8523,297.2127,81.8312,278.4546,0,U,68762,999,786,.13000462E-3,.1883E-4,0
COSMOS 2613,2026-083J,2026-06-08T06:37:27.328800,15.07451030,.00111003,97.7784,297.2104,85.5653,274.6842,0,U,68763,999,786,.18044784E-3,.2673E-4,0
COSMOS 2614,2026-083K,2026-06-08T07:01:33.177504,15.05745751,.0007652,97.7767,296.4345,56.9553,303.2407,0,U,68764,999,786,.121868E-3,.1701E-4,0
STARLINK-37168,2026-086A,2026-06-08T00:45:33.396192,15.49219204,.0001445,97.2859,195.9242,111.3708,248.7698,0,U,68766,999,767,.90760124E-3,.49636E-3,0
STARLINK-37174,2026-086B,2026-06-08T02:38:30.739200,15.33439888,.00015163,97.2839,195.9740,82.0662,278.0753,0,U,68767,999,768,.77378568E-3,.24985E-3,0
STARLINK-37279,2026-086C,2026-06-08T06:00:04.000320,15.33464011,.00016469,97.2851,196.1228,92.3550,349.9454,0,U,68768,999,594,-.15962847E-2,-.51294E-3,0
STARLINK-36379,2026-086D,2026-06-08T06:00:04.000320,15.41893559,.00015696,97.2843,196.1072,54.3141,343.7791,0,U,68769,999,584,-.59324215E-1,-.2255245E-1,0
STARLINK-37417,2026-086E,2026-06-08T00:48:53.032896,15.33443845,.00016896,97.2854,195.9256,97.4780,262.6655,0,U,68770,999,767,.86651793E-3,.28003E-3,0
STARLINK-36759,2026-086F,2026-06-08T02:26:45.683232,15.33440199,.00008645,97.2851,195.9842,131.5164,228.6153,0,U,68771,999,768,.45245272E-3,.14558E-3,0
STARLINK-37399,2026-086G,2026-06-08T06:00:04.000320,15.33432349,.0001982,97.2845,196.1417,80.9659,46.2621,0,U,68772,999,594,-.10479141E-2,-.33744E-3,0
STARLINK-37281,2026-086H,2026-06-08T06:00:04.000320,15.43868971,.00011307,97.2846,196.1278,94.9974,2.9910,0,U,68773,999,594,-.59550867E-1,-.2401693E-1,0
STARLINK-37381,2026-086J,2026-06-08T06:00:04.000320,15.33460744,.0001323,97.2849,196.1551,94.0907,63.2112,0,U,68774,999,594,-.16270083E-2,-.52267E-3,0
STARLINK-37418,2026-086K,2026-06-08T06:00:04.000320,15.33466896,.00010898,97.2851,196.1608,90.1032,82.1842,0,U,68775,999,594,-.16656685E-2,-.53508E-3,0
STARLINK-37393,2026-086L,2026-06-08T00:25:23.401344,15.33430548,.00010813,97.2847,195.9455,82.1860,277.9505,0,U,68776,999,767,.77505704E-3,.25018E-3,0
STARLINK-37400,2026-086M,2026-06-08T06:00:04.000320,15.33462657,.00013391,97.2848,196.1864,100.4944,131.8044,0,U,68777,999,599,-.1647647E-2,-.52927E-3,0
STARLINK-37389,2026-086N,2026-06-08T06:00:04.000320,15.33468813,.00009596,97.2849,196.1674,86.8337,100.4570,0,U,68778,999,584,-.16664821E-2,-.53537E-3,0
STARLINK-37391,2026-086P,2026-06-08T01:55:27.274656,15.33421382,.00016129,97.2849,196.0125,99.5733,260.5692,0,U,68779,999,768,.73413709E-3,.23683E-3,0
STARLINK-37266,2026-086Q,2026-06-08T06:00:04.000320,15.33466806,.00012904,97.2850,196.1921,87.9504,159.3393,0,U,68780,999,594,-.16597868E-2,-.53321E-3,0
STARLINK-37236,2026-086R,2026-06-08T06:00:04.000320,15.33479238,.00007257,97.2848,196.1981,117.2508,144.9492,0,U,68781,999,599,-.14819303E-2,-.47668E-3,0
STARLINK-37390,2026-086S,2026-06-08T06:00:04.000320,15.33423615,.00015103,97.2849,196.2064,101.9128,175.3565,0,U,68782,999,584,-.1203575E-2,-.38708E-3,0
STARLINK-37364,2026-086T,2026-06-08T06:00:04.000320,15.33443426,.00013931,97.2846,196.2199,88.8041,218.5272,0,U,68783,999,599,-.11500513E-2,-.37021E-3,0
STARLINK-37401,2026-086U,2026-06-08T06:00:04.000320,15.36221486,.00026209,97.2842,196.2173,91.7049,199.0282,0,U,68784,999,599,-.11986503E+0,-.3700135E-1,0
STARLINK-37335,2026-086V,2026-06-08T06:00:04.000320,15.33462558,.00010408,97.2850,196.2441,88.3201,278.9776,0,U,68785,999,599,-.15188631E-2,-.48822E-3,0
STARLINK-37404,2026-086W,2026-06-08T06:00:04.000320,15.33464126,.0001304,97.2850,196.2304,73.4446,263.8604,0,U,68786,999,599,-.15274014E-2,-.49097E-3,0
STARLINK-37292,2026-086X,2026-06-08T06:00:04.000320,15.37978451,.00016599,97.2851,196.2535,66.5707,307.6748,0,U,68787,999,599,-.67860818E-1,-.2265296E-1,0
STARLINK-37403,2026-086Y,2026-06-08T01:20:12.586272,15.33445441,.00019715,97.2840,196.0484,77.8923,282.2541,0,U,68788,999,768,.90482591E-3,.29251E-3,0
STARLINK-37413,2026-086Z,2026-06-08T06:00:04.000320,15.33454019,.00012736,97.2849,196.2250,101.6120,220.6321,0,U,68789,999,599,-.12581637E-2,-.40489E-3,0
STARLINK-37313,2026-086AA,2026-06-08T06:00:04.000320,15.54299764,.00019732,97.2847,196.7606,79.7752,65.8084,0,U,68790,999,599,-.4939855E-1,-.2819476E-1,0
NAVSTAR 86 (USA 585),2026-087A,2026-06-07T10:32:17.680992,2.00569573,.00209312,54.9638,208.1735,107.2972,251.8874,0,U,68791,999,63,0,.57E-6,0
FSI-SAT2,2026-088A,2026-06-07T22:08:03.154272,15.06758976,.00156149,97.5056,308.4160,135.5451,224.7033,0,U,68792,999,689,.29118811E-3,.4282E-4,0
KAKUSHIN RISING OBJECT B,2026-088B,2026-06-08T07:30:32.594400,15.06984775,.0016645,97.5049,308.8110,130.7914,229.4761,0,U,68793,999,695,.24349019E-3,.3594E-4,0
KAKUSHIN RISING OBJECT C,2026-088C,2026-06-07T21:48:01.452096,15.07195492,.00141463,97.5056,308.4348,125.7887,234.4658,0,U,68794,999,689,.32799755E-3,.4887E-4,0
ORIGAMISAT-2,2026-088D,2026-06-07T05:06:49.695552,15.08494173,.00169117,97.5080,307.8304,111.8771,248.4258,0,U,68795,999,679,.27959981E-3,.4311E-4,0
ARICA-2,2026-088E,2026-06-08T03:20:55.401504,15.08355519,.00173087,97.5058,308.7328,108.4409,251.8702,0,U,68796,999,693,.26658664E-3,.4092E-4,0
WASEDA-SAT-ZERO-II,2026-088F,2026-06-07T09:45:47.740320,15.08532126,.00170946,97.5055,308.0228,110.5796,249.7268,0,U,68797,999,682,.42581774E-3,.6608E-4,0
MAGNARO-II,2026-088G,2026-06-08T03:04:06.692736,15.08719418,.00206159,97.5060,308.7531,111.1792,249.1642,0,U,68798,999,693,.27457245E-3,.4266E-4,0
KAKUSHIN RISING OBJECT H,2026-088H,2026-06-07T22:16:45.106176,15.08740844,.00206682,97.5044,308.5487,111.7058,248.6373,0,U,68799,999,690,.27361695E-3,.4253E-4,0
